start=new Date('2022-05-04T00:00:00.000Z').valueOf();
sats=[{"RCS_SIZE":"LARGE","TIME_SYSTEM":"UTC","ARG_OF_PERICENTER":"193.1821","ECCENTRICITY":"0.00022830","EPHEMERIS_TYPE":"0","SITE":"AFETR","CLASSIFICATION_TYPE":"U","COUNTRY_CODE":"US","MEAN_MOTION_DDOT":"0.0000887710000","MEAN_MOTION_DOT":"0.00434019","ELEMENT_SET_NO":"999","SEMIMAJOR_AXIS":"6660.316","APOAPSIS":"283.701","MEAN_ELEMENT_THEORY":"SGP4","RA_OF_ASC_NODE":"100.3954","CENTER_NAME":"EARTH","TLE_LINE2":"2 47988  53.0454 100.3954 0002283 193.1821 268.3053 15.97204523  3739","REV_AT_EPOCH":"373","OBJECT_ID":"2021-024M","BSTAR":"0.00097384000000","TLE_LINE1":"1 47988U 21024M   22123.91667824  .00434019  88771-4  97384-3 0  9998","MEAN_MOTION":"15.97204523","PERIOD":"90.158","REF_FRAME":"TEME","MEAN_ANOMALY":"268.3053","EPOCH":"2022-05-03T22:00:00.999936","DECAY_DATE":null,"OBJECT_TYPE":"PAYLOAD","FILE":"3427573","INCLINATION":"53.0454","GP_ID":"202634882","OBJECT_NAME":"STARLINK-2306","NORAD_CAT_ID":"47988","LAUNCH_DATE":"2021-03-24","PERIAPSIS":"280.660"},{"ECCENTRICITY":"0.00015240","SITE":"AFETR","EPHEMERIS_TYPE":"0","CLASSIFICATION_TYPE":"U","MEAN_MOTION_DDOT":"0.0000000000000","COUNTRY_CODE":"US","RCS_SIZE":"LARGE","TIME_SYSTEM":"UTC","ARG_OF_PERICENTER":"79.2673","APOAPSIS":"548.191","MEAN_ELEMENT_THEORY":"SGP4","RA_OF_ASC_NODE":"77.3753","CENTER_NAME":"EARTH","TLE_LINE2":"2 47989  53.0554  77.3753 0001524  79.2673 313.1813 15.06425434  3613","REV_AT_EPOCH":"361","MEAN_MOTION_DOT":"-0.00023079","ELEMENT_SET_NO":"999","SEMIMAJOR_AXIS":"6925.271","MEAN_MOTION":"15.06425434","PERIOD":"95.591","BSTAR":"-0.00153440000000","OBJECT_ID":"2021-024N","TLE_LINE1":"1 47989U 21024N   22123.91667824 -.00023079  00000-0 -15344-2 0  9991","DECAY_DATE":null,"OBJECT_TYPE":"PAYLOAD","FILE":"3427573","INCLINATION":"53.0554","NORAD_CAT_ID":"47989","GP_ID":"202635133","OBJECT_NAME":"STARLINK-2305","PERIAPSIS":"546.080","LAUNCH_DATE":"2021-03-24","MEAN_ANOMALY":"313.1813","REF_FRAME":"TEME","EPOCH":"2022-05-03T22:00:00.999936"},{"EPHEMERIS_TYPE":"0","SITE":"AFETR","ECCENTRICITY":"0.00016930","MEAN_MOTION_DDOT":"0.0000000000000","COUNTRY_CODE":"US","CLASSIFICATION_TYPE":"U","ARG_OF_PERICENTER":"59.1107","RCS_SIZE":"LARGE","TIME_SYSTEM":"UTC","RA_OF_ASC_NODE":"77.3690","TLE_LINE2":"2 47990  53.0535  77.3690 0001693  59.1107 228.2105 15.06402016  3600","CENTER_NAME":"EARTH","APOAPSIS":"548.380","MEAN_ELEMENT_THEORY":"SGP4","REV_AT_EPOCH":"360","MEAN_MOTION_DOT":"0.00008105","ELEMENT_SET_NO":"999","SEMIMAJOR_AXIS":"6925.342","PERIOD":"95.592","MEAN_MOTION":"15.06402016","OBJECT_ID":"2021-024P","BSTAR":"0.00056237000000","TLE_LINE1":"1 47990U 21024P   22123.91667824  .00008105  00000-0  56237-3 0  9991","OBJECT_TYPE":"PAYLOAD","FILE":"3427573","INCLINATION":"53.0535","DECAY_DATE":null,"GP_ID":"202633882","NORAD_CAT_ID":"47990","OBJECT_NAME":"STARLINK-2307","LAUNCH_DATE":"2021-03-24","PERIAPSIS":"546.035","EPOCH":"2022-05-03T22:00:00.999936","REF_FRAME":"TEME","MEAN_ANOMALY":"228.2105"},{"ARG_OF_PERICENTER":"73.1824","RCS_SIZE":"LARGE","TIME_SYSTEM":"UTC","EPHEMERIS_TYPE":"0","SITE":"AFETR","ECCENTRICITY":"0.00014530","COUNTRY_CODE":"US","MEAN_MOTION_DDOT":"0.0000000000000","CLASSIFICATION_TYPE":"U","MEAN_MOTION_DOT":"0.00019174","ELEMENT_SET_NO":"999","SEMIMAJOR_AXIS":"6925.349","RA_OF_ASC_NODE":"92.3815","TLE_LINE2":"2 47991  53.0553  92.3815 0001453  73.1824 156.7579 15.06399753  3617","CENTER_NAME":"EARTH","APOAPSIS":"548.221","MEAN_ELEMENT_THEORY":"SGP4","REV_AT_EPOCH":"361","BSTAR":"0.00130260000000","OBJECT_ID":"2021-024Q","TLE_LINE1":"1 47991U 21024Q   22123.91667824  .00019174  00000-0  13026-2 0  9998","PERIOD":"95.592","MEAN_MOTION":"15.06399753","EPOCH":"2022-05-03T22:00:00.999936","REF_FRAME":"TEME","MEAN_ANOMALY":"156.7579","OBJECT_TYPE":"PAYLOAD","FILE":"3427573","INCLINATION":"53.0553","DECAY_DATE":null,"GP_ID":"202633630","NORAD_CAT_ID":"47991","OBJECT_NAME":"STARLINK-2279","LAUNCH_DATE":"2021-03-24","PERIAPSIS":"546.208"},{"RA_OF_ASC_NODE":"87.3814","TLE_LINE2":"2 47992  53.0537  87.3814 0001925  50.9761 106.4675 15.06391414  3615","CENTER_NAME":"EARTH","APOAPSIS":"548.573","MEAN_ELEMENT_THEORY":"SGP4","REV_AT_EPOCH":"361","MEAN_MOTION_DOT":"0.00015299","ELEMENT_SET_NO":"999","SEMIMAJOR_AXIS":"6925.375","EPHEMERIS_TYPE":"0","SITE":"AFETR","ECCENTRICITY":"0.00019250","MEAN_MOTION_DDOT":"0.0000000000000","COUNTRY_CODE":"US","CLASSIFICATION_TYPE":"U","ARG_OF_PERICENTER":"50.9761","RCS_SIZE":"LARGE","TIME_SYSTEM":"UTC","OBJECT_TYPE":"PAYLOAD","FILE":"3427573","INCLINATION":"53.0537","DECAY_DATE":null,"NORAD_CAT_ID":"47992","GP_ID":"202634384","OBJECT_NAME":"STARLINK-2229","LAUNCH_DATE":"2021-03-24","PERIAPSIS":"545.907","MEAN_ANOMALY":"106.4675","EPOCH":"2022-05-03T22:00:00.999936","REF_FRAME":"TEME","PERIOD":"95.593","MEAN_MOTION":"15.06391414","BSTAR":"0.00104400000000","OBJECT_ID":"2021-024R","TLE_LINE1":"1 47992U 21024R   22123.91667824  .00015299  00000-0  10440-2 0  9990"},{"TLE_LINE1":"1 47993U 21024S   22123.70433543  .00000396  00000-0  45493-4 0  9997","OBJECT_ID":"2021-024S","BSTAR":"0.00004549300000","PERIOD":"95.593","MEAN_MOTION":"15.06387532","REF_FRAME":"TEME","EPOCH":"2022-05-03T16:54:14.581152","MEAN_ANOMALY":"308.9728","LAUNCH_DATE":"2021-03-24","PERIAPSIS":"545.822","NORAD_CAT_ID":"47993","GP_ID":"202634635","OBJECT_NAME":"STARLINK-2273","FILE":"3427573","INCLINATION":"53.0540","OBJECT_TYPE":"PAYLOAD","DECAY_DATE":null,"ARG_OF_PERICENTER":"51.1445","TIME_SYSTEM":"UTC","RCS_SIZE":"LARGE","MEAN_MOTION_DDOT":"0.0000000000000","COUNTRY_CODE":"US","CLASSIFICATION_TYPE":"U","SITE":"AFETR","EPHEMERIS_TYPE":"0","ECCENTRICITY":"0.00020640","SEMIMAJOR_AXIS":"6925.387","ELEMENT_SET_NO":"999","MEAN_MOTION_DOT":"0.00000396","REV_AT_EPOCH":"6320","TLE_LINE2":"2 47993  53.0540 128.3444 0002064  51.1445 308.9728 15.06387532 63207","CENTER_NAME":"EARTH","RA_OF_ASC_NODE":"128.3444","APOAPSIS":"548.681","MEAN_ELEMENT_THEORY":"SGP4"},{"DECAY_DATE":null,"OBJECT_TYPE":"PAYLOAD","FILE":"3427573","INCLINATION":"53.0554","GP_ID":"202633383","NORAD_CAT_ID":"47994","OBJECT_NAME":"STARLINK-2290","LAUNCH_DATE":"2021-03-24","PERIAPSIS":"545.766","MEAN_ANOMALY":"311.3815","EPOCH":"2022-05-03T18:35:43.513152","REF_FRAME":"TEME","MEAN_MOTION":"15.06412268","PERIOD":"95.591","OBJECT_ID":"2021-024T","BSTAR":"0.00027678000000","TLE_LINE1":"1 47994U 21024T   22123.77480918  .00003845  00000-0  27678-3 0  9999","APOAPSIS":"548.586","MEAN_ELEMENT_THEORY":"SGP4","RA_OF_ASC_NODE":"143.0213","CENTER_NAME":"EARTH","TLE_LINE2":"2 47994  53.0554 143.0213 0002036  48.7350 311.3815 15.06412268 62947","REV_AT_EPOCH":"6294","ELEMENT_SET_NO":"999","MEAN_MOTION_DOT":"0.00003845","SEMIMAJOR_AXIS":"6925.311","ECCENTRICITY":"0.00020360","SITE":"AFETR","EPHEMERIS_TYPE":"0","CLASSIFICATION_TYPE":"U","COUNTRY_CODE":"US","MEAN_MOTION_DDOT":"0.0000000000000","RCS_SIZE":"LARGE","TIME_SYSTEM":"UTC","ARG_OF_PERICENTER":"48.7350"},{"APOAPSIS":"548.572","MEAN_ELEMENT_THEORY":"SGP4","RA_OF_ASC_NODE":"108.4224","CENTER_NAME":"EARTH","TLE_LINE2":"2 47995  53.0547 108.4224 0001922  57.1877 302.9297 15.06390978 63436","REV_AT_EPOCH":"6343","MEAN_MOTION_DOT":"0.00001268","ELEMENT_SET_NO":"999","SEMIMAJOR_AXIS":"6925.376","ECCENTRICITY":"0.00019220","SITE":"AFETR","EPHEMERIS_TYPE":"0","CLASSIFICATION_TYPE":"U","MEAN_MOTION_DDOT":"0.0000000000000","COUNTRY_CODE":"US","RCS_SIZE":"LARGE","TIME_SYSTEM":"UTC","ARG_OF_PERICENTER":"57.1877","DECAY_DATE":null,"OBJECT_TYPE":"PAYLOAD","FILE":"3427573","INCLINATION":"53.0547","NORAD_CAT_ID":"47995","GP_ID":"202634130","OBJECT_NAME":"STARLINK-2309","PERIAPSIS":"545.910","LAUNCH_DATE":"2021-03-24","EPOCH":"2022-05-03T16:28:59.425824","REF_FRAME":"TEME","MEAN_ANOMALY":"302.9297","MEAN_MOTION":"15.06390978","PERIOD":"95.593","OBJECT_ID":"2021-024U","BSTAR":"0.00010406000000","TLE_LINE1":"1 47995U 21024U   22123.68679891  .00001268  00000-0  10406-3 0  9998"},{"ECCENTRICITY":"0.00042170","SITE":"AFETR","EPHEMERIS_TYPE":"0","CLASSIFICATION_TYPE":"U","COUNTRY_CODE":"US","MEAN_MOTION_DDOT":"0.0000000000000","TIME_SYSTEM":"UTC","RCS_SIZE":"LARGE","ARG_OF_PERICENTER":"171.8220","APOAPSIS":"459.247","MEAN_ELEMENT_THEORY":"SGP4","CENTER_NAME":"EARTH","TLE_LINE2":"2 47996  53.0457  37.2207 0004217 171.8220 152.9378 15.36535754  3650","RA_OF_ASC_NODE":"37.2207","REV_AT_EPOCH":"365","MEAN_MOTION_DOT":"-0.00030842","ELEMENT_SET_NO":"999","SEMIMAJOR_AXIS":"6834.500","MEAN_MOTION":"15.36535754","PERIOD":"93.717","OBJECT_ID":"2021-024V","BSTAR":"-0.00084490000000","TLE_LINE1":"1 47996U 21024V   22123.91667824 -.00030842  00000-0 -84490-3 0  9994","DECAY_DATE":null,"FILE":"3427573","INCLINATION":"53.0457","OBJECT_TYPE":"PAYLOAD","PERIAPSIS":"453.483","LAUNCH_DATE":"2021-03-24","GP_ID":"202634883","NORAD_CAT_ID":"47996","OBJECT_NAME":"STARLINK-2260","REF_FRAME":"TEME","EPOCH":"2022-05-03T22:00:00.999936","MEAN_ANOMALY":"152.9378"},{"PERIOD":"95.592","MEAN_MOTION":"15.06398482","OBJECT_ID":"2021-024W","BSTAR":"0.00008110400000","TLE_LINE1":"1 47997U 21024W   22123.75639811  .00000927  00000-0  81104-4 0  9991","INCLINATION":"53.0529","FILE":"3427573","OBJECT_TYPE":"PAYLOAD","DECAY_DATE":null,"LAUNCH_DATE":"2021-03-24","PERIAPSIS":"545.938","OBJECT_NAME":"STARLINK-2266","GP_ID":"202635134","NORAD_CAT_ID":"47997","EPOCH":"2022-05-03T18:09:12.796704","REF_FRAME":"TEME","MEAN_ANOMALY":"307.2815","EPHEMERIS_TYPE":"0","SITE":"AFETR","ECCENTRICITY":"0.00018480","MEAN_MOTION_DDOT":"0.0000000000000","COUNTRY_CODE":"US","CLASSIFICATION_TYPE":"U","ARG_OF_PERICENTER":"52.8342","TIME_SYSTEM":"UTC","RCS_SIZE":"LARGE","CENTER_NAME":"EARTH","TLE_LINE2":"2 47997  53.0529 143.1033 0001848  52.8342 307.2815 15.06398482 63003","RA_OF_ASC_NODE":"143.1033","MEAN_ELEMENT_THEORY":"SGP4","APOAPSIS":"548.498","REV_AT_EPOCH":"6300","MEAN_MOTION_DOT":"0.00000927","ELEMENT_SET_NO":"999","SEMIMAJOR_AXIS":"6925.353"}];
